STARLINK-4374
1 53652U 22105E   26092.40748817  .00048035  00000+0  33441-2 0  9995
2 53652  97.6025 333.4779 0001996  94.0987 266.0468 15.05275915196794
